NORAD_CAT_ID,OBJECT_NAME,OBJECT_TYPE,EPOCH,MEAN_MOTION,ECCENTRICITY,INCLINATION,RA_OF_ASC_NODE,ARG_OF_PERICENTER,MEAN_ANOMALY,BSTAR,MEAN_MOTION_DOT,MEAN_MOTION_DDOT,TLE_LINE0,TLE_LINE1,TLE_LINE2,SEMIMAJOR_AXIS,PERIOD,APOGEE,PERIGEE,DECAYED
51467.0,STARLINK-3178,PAYLOAD,2022-03-03 22:00:00,15.70465535,0.0001514,53.2174,32.7944,46.548,160.11,-0.0062406,-0.00716987,0.0,0 STARLINK-3178,1 51467U 22010M   22062.91667824 -.00716987  00000-0 -62406-2 0  9993,2 51467  53.2174  32.7944 0001514  46.5480 160.1100 15.70465535  3715,6735.703,91.693,358.587,356.548,0.0
51467.0,STARLINK-3178,PAYLOAD,2022-03-04 06:00:02,15.69956568,0.0001391,53.2173,31.1516,49.6515,242.4029,-0.0064066,-0.00720187,0.0,0 STARLINK-3178,1 51467U 22010M   22063.25002315 -.00720187  00000-0 -64066-2 0  9990,2 51467  53.2173  31.1516 0001391  49.6515 242.4029 15.69956568  5803,6737.158,91.722,359.96,358.086,0.0
51467.0,STARLINK-3178,PAYLOAD,2022-03-04 14:00:01,15.69446006,0.0001259,53.2174,29.5069,46.5048,330.2698,-0.0065307,-0.00718734,0.0,0 STARLINK-3178,1 51467U 22010M   22063.58335648 -.00718734  00000-0 -65307-2 0  9998,2 51467  53.2174  29.5069 0001259  46.5048 330.2698 15.69446006  3726,6738.619000000002,91.752,361.333,359.636,0.0
51467.0,STARLINK-3178,PAYLOAD,2022-03-04 22:00:00,15.68934554,0.0001543,53.2175,27.8636,39.8035,61.0132,-0.0066379,-0.00715498,0.0,0 STARLINK-3178,1 51467U 22010M   22063.91667824 -.00715498  00000-0 -66379-2 0  9993,2 51467  53.2175  27.8636 0001543  39.8035  61.0132 15.68934554  3704,6740.084,91.782,362.989,360.909,0.0
51467.0,STARLINK-3178,PAYLOAD,2022-03-05 06:00:00,15.68325237,0.0001479,53.2177,26.2261,48.9742,135.3855,-0.0054462,-0.00581799,0.0,0 STARLINK-3178,1 51467U 22010M   22064.25001157 -.00581799  00000-0 -54462-2 0  9997,2 51467  53.2177  26.2261 0001479  48.9742 135.3855 15.68325237  5966,6741.829000000002,91.818,364.691,362.697,0.0
51467.0,STARLINK-3178,PAYLOAD,2022-03-05 14:00:01,15.6791774,0.0001277,53.2174,24.5832,59.4224,207.7678,-0.0069861,-0.00721455,0.0,0 STARLINK-3178,1 51467U 22010M   22064.58334491 -.00721455  00000-0 -69861-2 0  9997,2 51467  53.2174  24.5832 0001277  59.4224 207.7678 15.67917740  3685,6742.996999999999,91.842,365.723,364.001,0.0
51467.0,STARLINK-3178,PAYLOAD,2022-03-05 16:00:00,15.67780472,0.0001463,53.2175,24.1739,38.985,338.8333,-0.0068626,-0.00706081,0.0,0 STARLINK-3178,1 51467U 22010M   22064.66667824 -.00706081  00000-0 -68626-2 0  9991,2 51467  53.2175  24.1739 0001463  38.9850 338.8333 15.67780472  6027,6743.391,91.85,366.24300000000005,364.269,0.0
51467.0,STARLINK-3178,PAYLOAD,2022-03-05 22:00:01,15.67406113,0.0001372,53.2176,22.94400000000001,42.9484,306.5761,-0.0070929,-0.00717619,0.0,0 STARLINK-3178,1 51467U 22010M   22064.91668981 -.00717619  00000-0 -70929-2 0  9992,2 51467  53.2176  22.9440 0001372  42.9484 306.5761 15.67406113  3728,6744.465,91.872,367.255,365.404,0.0
51467.0,STARLINK-3178,PAYLOAD,2022-03-06 14:00:01,15.66290339,0.0001685,53.2173,19.673,35.9069,116.299,-0.0060053999999999,-0.00589795,0.0,0 STARLINK-3178,1 51467U 22010M   22065.58334491 -.00589795  00000-0 -60054-2 0  9992,2 51467  53.2173  19.6730 0001685  35.9069 116.2990 15.66290339  6170,6747.667,91.937,370.669,368.395,0.0
51467.0,STARLINK-3178,PAYLOAD,2022-03-06 22:00:00,15.65799894,0.0001351,53.2173,18.0371,48.988,183.6354,-0.0063656999999999,-0.00611242,0.0,0 STARLINK-3178,1 51467U 22010M   22065.91667824 -.00611242  00000-0 -63657-2 0  9993,2 51467  53.2173  18.0371 0001351  48.9880 183.6354 15.65799894  6226,6749.076,91.966,371.853,370.029,0.0
51467.0,STARLINK-3178,PAYLOAD,2022-03-07 06:00:00,15.65366111,0.0001486,53.2176,16.404,43.4118,268.9913,-0.0077076,-0.00717832,0.0,0 STARLINK-3178,1 51467U 22010M   22066.25001157 -.00717832  00000-0 -77076-2 0  9994,2 51467  53.2176  16.4040 0001486  43.4118 268.9913 15.65366111  6272,6750.323,91.991,373.191,371.185,0.0
51467.0,STARLINK-3178,PAYLOAD,2022-03-07 12:00:00,15.64984551,0.0001466,53.2174,15.1784,44.4814,237.3828,-0.0078459,-0.00719446,0.0,0 STARLINK-3178,1 51467U 22010M   22066.50001157 -.00719446  00000-0 -78459-2 0  9991,2 51467  53.2174  15.1784 0001466  44.4814 237.3828 15.64984551  3739,6751.42,92.014,374.275,372.295,0.0
51467.0,STARLINK-3178,PAYLOAD,2022-03-07 22:00:00,15.64213367,0.0001398,53.2175,13.1397,53.1394,57.1367,-0.0060617,-0.00550307,0.0,0 STARLINK-3178,1 51467U 22010M   22066.91667824 -.00550307  00000-0 -60617-2 0  9991,2 51467  53.2175  13.1397 0001398  53.1394  57.1367 15.64213367  3671,6753.639,92.059,376.448,374.56,0.0
51467.0,STARLINK-3178,PAYLOAD,2022-03-08 06:00:02,15.63832603,0.0001709,53.2175,11.5103,40.4843,147.7596,-0.0081121,-0.00711203,0.0,0 STARLINK-3178,1 51467U 22010M   22067.25002315 -.00711203  00000-0 -81121-2 0  9994,2 51467  53.2175  11.5103 0001709  40.4843 147.7596 15.63832603  6438,6754.735,92.081,377.755,375.446,0.0
51467.0,STARLINK-3178,PAYLOAD,2022-03-08 14:00:01,15.63327359,0.0001385,53.2175,9.88,51.5502,213.9937,-0.0083765,-0.00719047,0.0,0 STARLINK-3178,1 51467U 22010M   22067.58334491 -.00719047  00000-0 -83765-2 0  9993,2 51467  53.2175   9.8800 0001385  51.5502 213.9937 15.63327359  3706,6756.191,92.111,378.991,377.12,0.0
51467.0,STARLINK-3178,PAYLOAD,2022-03-08 22:00:00,15.62817127,0.0001447,53.2175,8.2525,40.1475,302.1495,-0.0085358,-0.00718199,0.0,0 STARLINK-3178,1 51467U 22010M   22067.91667824 -.00718199  00000-0 -85358-2 0  9996,2 51467  53.2175   8.2525 0001447  40.1475 302.1495 15.62817127  3699,6757.661,92.141,380.504,378.548,0.0
51467.0,STARLINK-3178,PAYLOAD,2022-03-09 06:00:00,15.62302883,0.0001603,53.2174,6.6282,33.8228,24.6152,-0.0086234,-0.00711663,0.0,0 STARLINK-3178,1 51467U 22010M   22068.25001157 -.00711663  00000-0 -86234-2 0  9998,2 51467  53.2174   6.6282 0001603  33.8228  24.6152 15.62302883  6595,6759.144,92.172,382.092,379.925,0.0
51467.0,STARLINK-3178,PAYLOAD,2022-03-09 14:00:01,15.61794231,0.0001395,53.2174,5.0012,47.3364,86.6296,-0.008817,-0.00713122,0.0,0 STARLINK-3178,1 51467U 22010M   22068.58334491 -.00713122  00000-0 -88170-2 0  9997,2 51467  53.2174   5.0012 0001395  47.3364  86.6296 15.61794231  3706,6760.611,92.202,383.419,381.533,0.0
51467.0,STARLINK-3178,PAYLOAD,2022-03-09 22:00:01,15.61284798,0.0001606,53.2177,3.3775,44.3526,164.593,-0.0090046,-0.00713947,0.0,0 STARLINK-3178,1 51467U 22010M   22068.91668981 -.00713947  00000-0 -90046-2 0  9998,2 51467  53.2177   3.3775 0001606  44.3526 164.5930 15.61284798  3699,6762.081999999999,92.232,385.033,382.861,0.0
51467.0,STARLINK-3178,PAYLOAD,2022-03-10 06:00:00,15.6077323,0.0001382,53.2175,1.7567,51.3801,231.8019,-0.0091465,-0.00711142,0.0,0 STARLINK-3178,1 51467U 22010M   22069.25001157 -.00711142  00000-0 -91465-2 0  9993,2 51467  53.2175   1.7567 0001382  51.3801 231.8019 15.60773230  6741,6763.559,92.262,386.359,384.49,0.0
51467.0,STARLINK-3178,PAYLOAD,2022-03-10 14:00:01,15.60128283,0.000148,53.2177,0.1353,29.3876,327.5576,-0.0069077,-0.00535479,0.0,0 STARLINK-3178,1 51467U 22010M   22069.58334491 -.00535479  00000-0 -69077-2 0  9990,2 51467  53.2177   0.1353 0001480  29.3876 327.5576 15.60128283  3666,6765.4230000000025,92.3,388.289,386.287,0.0
51467.0,STARLINK-3178,PAYLOAD,2022-03-10 22:00:01,15.597567000000002,0.0001698,53.2176,358.5139,32.3184,37.694,-0.0095972,-0.00717027,0.0,0 STARLINK-3178,1 51467U 22010M   22069.91668981 -.00717027  00000-0 -95972-2 0  9995,2 51467  53.2176 358.5139 0001698  32.3184  37.6940 15.59756700  3702,6766.498000000001,92.322,389.512,387.214,0.0
51467.0,STARLINK-3178,PAYLOAD,2022-03-11 04:00:00,15.59373879,0.0001488,53.2175,357.3011,40.1674,354.1843,-0.0097316,-0.00716474,0.0,0 STARLINK-3178,1 51467U 22010M   22070.16667824 -.00716474  00000-0 -97316-2 0  9998,2 51467  53.2175 357.3011 0001488  40.1674 354.1843 15.59373879  6888,6767.605,92.345,390.477,388.463,0.0
51467.0,STARLINK-3178,PAYLOAD,2022-03-11 14:00:01,15.58734392,0.0001537,53.2174,355.2768,45.8294,168.4334,-0.0099093,-0.00712331,0.0,0 STARLINK-3178,1 51467U 22010M   22070.58334491 -.00712331  00000-0 -99093-2 0  9997,2 51467  53.2174 355.2768 0001537  45.8294 168.4334 15.58734392  3673,6769.456,92.383,392.361,390.28,0.0
51467.0,STARLINK-3178,PAYLOAD,2022-03-11 22:00:00,15.58226043,0.0001612,53.2175,353.6612,40.3897,245.1101,-0.010147,-0.00715209,0.0,0 STARLINK-3178,1 51467U 22010M   22070.91667824 -.00715209  00000-0 -10147-1 0  9992,2 51467  53.2175 353.6612 0001612  40.3897 245.1101 15.58226043  3682,6770.928000000001,92.413,393.885,391.702,0.0
51467.0,STARLINK-3178,PAYLOAD,2022-03-12 06:00:00,15.57714288,0.0001339,53.2173,352.0474,45.7175,310.4072,-0.010291,-0.00711695,0.0,0 STARLINK-3178,1 51467U 22010M   22071.25001157 -.00711695  00000-0 -10291-1 0  9996,2 51467  53.2173 352.0474 0001339  45.7175 310.4072 15.57714288  7053,6772.411,92.443,395.1830000000001,393.369,0.0
51467.0,STARLINK-3178,PAYLOAD,2022-03-12 14:00:01,15.57203854,0.0001425,53.2175,350.4315,40.5108,25.628,-0.010488,-0.0071152,0.0,0 STARLINK-3178,1 51467U 22010M   22071.58334491 -.00711520  00000-0 -10488-1 0  9997,2 51467  53.2175 350.4315 0001425  40.5108  25.6280 15.57203854  3702,6773.891,92.473,396.721,394.791,0.0
51467.0,STARLINK-3178,PAYLOAD,2022-03-12 22:00:00,15.56695058,0.000177,53.2175,348.8196,35.95,99.5876,-0.010718,-0.0071327,0.0,0 STARLINK-3178,1 51467U 22010M   22071.91667824 -.00713270  00000-0 -10718-1 0  9993,2 51467  53.2175 348.8196 0001770  35.9500  99.5876 15.56695058  3708,6775.3669999999975,92.504,398.431,396.033,0.0
51467.0,STARLINK-3178,PAYLOAD,2022-03-13 06:00:00,15.56182838,0.0001504,53.2172,347.2091,49.9123,154.412,-0.010853,-0.00708882,0.0,0 STARLINK-3178,1 51467U 22010M   22072.25001157 -.00708882  00000-0 -10853-1 0  9995,2 51467  53.2172 347.2091 0001504  49.9123 154.4120 15.56182838  7213,6776.853,92.534,399.73800000000006,397.699,0.0
